{"type": "FeatureCollection", "features": [ {"type": "Feature", "properties": {"norad_id": 66634, "name": "STARLINK-35967", "group": "last-30-days", "lat": -51.367818834061154, "lon": 154.1992040175255, "alt_km": 394.07813306601656, "timestamp": "2025-12-05T05:43:13.897984+00:00", "meta": {"OBJECT_NAME": "STARLINK-35967", "OBJECT_ID": "2025-271T", "EPOCH": "2025-12-04T16:17:20.200128", "MEAN_MOTION": 15.74398593, "ECCENTRICITY": 0.003543, "INCLINATION": 53.1568, "RA_OF_ASC_NODE": 226.7021, "ARG_OF_PERICENTER": 33.0196, "MEAN_ANOMALY": 327.3026, "EPHEMERIS_TYPE": 0, "CLASSIFICATION_TYPE": "U", "NORAD_CAT_ID": 66634, "ELEMENT_SET_NO": 999, "REV_AT_EPOCH": 290, "BSTAR": -0.07605, "MEAN_MOTION_DOT": -0.09405874, "MEAN_MOTION_DDOT": 0}, "tle": {"line1": "1 66634U 25271T   25338.67870602 -.09405874  00000+0 -76050-1 0  9996", "line2": "2 66634  53.1568 226.7021 0035430  33.0196 327.3026 15.74398593  2900"}}, "geometry": {"type": "Point", "coordinates": [154.1992040175255, -51.367818834061154]}}, {"type": "Feature", "properties": {"norad_id": 66635, "name": "STARLINK-35955", "group": "last-30-days", "lat": -30.415104859157168, "lon": -162.24975628990643, "alt_km": 319.05334598383524, "timestamp": "2025-12-05T05:43:13.897994+00:00", "meta": {"OBJECT_NAME": "STARLINK-35955", "OBJECT_ID": "2025-271U", "EPOCH": "2025-12-04T04:08:02.562432", "MEAN_MOTION": 15.81682042, "ECCENTRICITY": 0.00049906, "INCLINATION": 53.1555, "RA_OF_ASC_NODE": 229.232, "ARG_OF_PERICENTER": 47.5506, "MEAN_ANOMALY": 312.5938, "EPHEMERIS_TYPE": 0, "CLASSIFICATION_TYPE": "U", "NORAD_CAT_ID": 66635, "ELEMENT_SET_NO": 999, "REV_AT_EPOCH": 286, "BSTAR": 0.0075810547, "MEAN_MOTION_DOT": 0.0176083, "MEAN_MOTION_DDOT": 0}, "tle": {"line1": "1 66635U 25271U   25338.17225188  .01760830  00000+0  75811-2 0  9996", "line2": "2 66635  53.1555 229.2320 0004990  47.5506 312.5938 15.81682042  2865"}}, "geometry": {"type": "Point", "coordinates": [-162.24975628990643, -30.415104859157168]}}, {"type": "Feature", "properties": {"norad_id": 66636, "name": "STARLINK-35968", "group": "last-30-days", "lat": -31.83869767325171, "lon": -163.879118126551, "alt_km": 326.8995840931966, "timestamp": "2025-12-05T05:43:13.898004+00:00", "meta": {"OBJECT_NAME": "STARLINK-35968", "OBJECT_ID": "2025-271V", "EPOCH": "2025-12-04T16:15:21.242016", "MEAN_MOTION": 15.82289404, "ECCENTRICITY": 0.0009802, "INCLINATION": 53.1552, "RA_OF_ASC_NODE": 226.6934, "ARG_OF_PERICENTER": 207.5045, "MEAN_ANOMALY": 152.546, "EPHEMERIS_TYPE": 0, "CLASSIFICATION_TYPE": "U", "NORAD_CAT_ID": 66636, "ELEMENT_SET_NO": 999, "REV_AT_EPOCH": 294, "BSTAR": 0.0043613, "MEAN_MOTION_DOT": 0.01037255, "MEAN_MOTION_DDOT": 0}, "tle": {"line1": "1 66636U 25271V   25338.67732919  .01037255  00000+0  43613-2 0  9990", "line2": "2 66636  53.1552 226.6934 0009802 207.5045 152.5460 15.82289404  2945"}}, "geometry": {"type": "Point", "coordinates": [-163.879118126551, -31.83869767325171]}}, {"type": "Feature", "properties": {"norad_id": 66637, "name": "STARLINK-35953", "group": "last-30-days", "lat": -34.41386645461214, "lon": -167.03280285863954, "alt_km": 333.28470558608115, "timestamp": "2025-12-05T05:43:13.898014+00:00", "meta": {"OBJECT_NAME": "STARLINK-35953", "OBJECT_ID": "2025-271W", "EPOCH": "2025-12-04T10:11:02.535360", "MEAN_MOTION": 15.81154634, "ECCENTRICITY": 0.0001576, "INCLINATION": 53.1554, "RA_OF_ASC_NODE": 227.9588, "ARG_OF_PERICENTER": 20.6444, "MEAN_ANOMALY": 339.4642, "EPHEMERIS_TYPE": 0, "CLASSIFICATION_TYPE": "U", "NORAD_CAT_ID": 66637, "ELEMENT_SET_NO": 999, "REV_AT_EPOCH": 290, "BSTAR": -0.0025393, "MEAN_MOTION_DOT": -0.00481281, "MEAN_MOTION_DDOT": 0}, "tle": {"line1": "1 66637U 25271W   25338.42433490 -.00481281  00000+0 -25393-2 0  9994", "line2": "2 66637  53.1554 227.9588 0001576  20.6444 339.4642 15.81154634  2903"}}, "geometry": {"type": "Point", "coordinates": [-167.03280285863954, -34.41386645461214]}}, {"type": "Feature", "properties": {"norad_id": 66638, "name": "STARLINK-35972", "group": "last-30-days", "lat": -35.90614882496741, "lon": -168.9975573856939, "alt_km": 340.7846631806833, "timestamp": "2025-12-05T05:43:13.898024+00:00", "meta": {"OBJECT_NAME": "STARLINK-35972", "OBJECT_ID": "2025-271X", "EPOCH": "2025-12-04T00:00:02.000160", "MEAN_MOTION": 15.82225759, "ECCENTRICITY": 8.193e-05, "INCLINATION": 53.156, "RA_OF_ASC_NODE": 230.0843, "ARG_OF_PERICENTER": 74.7905, "MEAN_ANOMALY": 30.343, "EPHEMERIS_TYPE": 0, "CLASSIFICATION_TYPE": "U", "NORAD_CAT_ID": 66638, "ELEMENT_SET_NO": 999, "REV_AT_EPOCH": 284, "BSTAR": -0.0090968916, "MEAN_MOTION_DOT": -0.01662822, "MEAN_MOTION_DDOT": 0}, "tle": {"line1": "1 66638U 25271X   25338.00002315 -.01662822  00000+0 -90969-2 0  9991", "line2": "2 66638  53.1560 230.0843 0000819  74.7905  30.3430 15.82225759  2844"}}, "geometry": {"type": "Point", "coordinates": [-168.9975573856939, -35.90614882496741]}}, {"type": "Feature", "properties": {"norad_id": 66639, "name": "STARLINK-35908", "group": "last-30-days", "lat": -17.34902620870849, "lon": -149.7173126359928, "alt_km": 310.38685766690014, "timestamp": "2025-12-05T05:43:13.898036+00:00", "meta": {"OBJECT_NAME": "STARLINK-35908", "OBJECT_ID": "2025-271Y", "EPOCH": "2025-12-04T02:34:25.508352", "MEAN_MOTION": 15.84226755, "ECCENTRICITY": 0.00097052, "INCLINATION": 53.1556, "RA_OF_ASC_NODE": 229.5367, "ARG_OF_PERICENTER": 335.6046, "MEAN_ANOMALY": 24.4518, "EPHEMERIS_TYPE": 0, "CLASSIFICATION_TYPE": "U", "NORAD_CAT_ID": 66639, "ELEMENT_SET_NO": 999, "REV_AT_EPOCH": 285, "BSTAR": 0.0030756132, "MEAN_MOTION_DOT": 0.00777445, "MEAN_MOTION_DDOT": 0}, "tle": {"line1": "1 66639U 25271Y   25338.10723968  .00777445  00000+0  30756-2 0  9990", "line2": "2 66639  53.1556 229.5367 0009705 335.6046  24.4518 15.84226755  2853"}}, "geometry": {"type": "Point", "coordinates": [-149.7173126359928, -17.34902620870849]}}, {"type": "Feature", "properties": {"norad_id": 66640, "name": "STARLINK-35921", "group": "last-30-days", "lat": -27.94309575490107, "lon": -159.57755096461995, "alt_km": 326.4521418263148, "timestamp": "2025-12-05T05:43:13.898050+00:00", "meta": {"OBJECT_NAME": "STARLINK-35921", "OBJECT_ID": "2025-271Z", "EPOCH": "2025-12-04T07:07:23.950272", "MEAN_MOTION": 15.81318878, "ECCENTRICITY": 0.0004963, "INCLINATION": 53.1562, "RA_OF_ASC_NODE": 228.5854, "ARG_OF_PERICENTER": 9.2257, "MEAN_ANOMALY": 350.8856, "EPHEMERIS_TYPE": 0, "CLASSIFICATION_TYPE": "U", "NORAD_CAT_ID": 66640, "ELEMENT_SET_NO": 999, "REV_AT_EPOCH": 288, "BSTAR": 0.0015698, "MEAN_MOTION_DOT": 0.00327985, "MEAN_MOTION_DDOT": 0}, "tle": {"line1": "1 66640U 25271Z   25338.29680498  .00327985  00000+0  15698-2 0  9990", "line2": "2 66640  53.1562 228.5854 0004963   9.2257 350.8856 15.81318878  2880"}}, "geometry": {"type": "Point", "coordinates": [-159.57755096461995, -27.94309575490107]}}, {"type": "Feature", "properties": {"norad_id": 66641, "name": "STARLINK-35923", "group": "last-30-days", "lat": -21.51562672145626, "lon": -153.35385660604388, "alt_km": 334.9196758462813, "timestamp": "2025-12-05T05:43:13.898059+00:00", "meta": {"OBJECT_NAME": "STARLINK-35923", "OBJECT_ID": "2025-271AA", "EPOCH": "2025-12-04T04:02:26.143296", "MEAN_MOTION": 15.81718152, "ECCENTRICITY": 0.00011943, "INCLINATION": 53.1554, "RA_OF_ASC_NODE": 229.2043, "ARG_OF_PERICENTER": 158.0841, "MEAN_ANOMALY": 202.0234, "EPHEMERIS_TYPE": 0, "CLASSIFICATION_TYPE": "U", "NORAD_CAT_ID": 66641, "ELEMENT_SET_NO": 999, "REV_AT_EPOCH": 286, "BSTAR": -0.0043987252, "MEAN_MOTION_DOT": -0.00822461, "MEAN_MOTION_DDOT": 0}, "tle": {"line1": "1 66641U 25271AA  25338.16835814 -.00822461  00000+0 -43987-2 0  9994", "line2": "2 66641  53.1554 229.2043 0001194 158.0841 202.0234 15.81718152  2860"}}, "geometry": {"type": "Point", "coordinates": [-153.35385660604388, -21.51562672145626]}}, {"type": "Feature", "properties": {"norad_id": 66642, "name": "STARLINK-35926", "group": "last-30-days", "lat": -20.427320100053986, "lon": -152.37744295729973, "alt_km": 328.4757306200145, "timestamp": "2025-12-05T05:43:13.898069+00:00", "meta": {"OBJECT_NAME": "STARLINK-35926", "OBJECT_ID": "2025-271AB", "EPOCH": "2025-12-04T16:11:02.031648", "MEAN_MOTION": 15.81653484, "ECCENTRICITY": 0.000827, "INCLINATION": 53.1555, "RA_OF_ASC_NODE": 226.6722, "ARG_OF_PERICENTER": 225.4105, "MEAN_ANOMALY": 134.6244, "EPHEMERIS_TYPE": 0, "CLASSIFICATION_TYPE": "U", "NORAD_CAT_ID": 66642, "ELEMENT_SET_NO": 999, "REV_AT_EPOCH": 290, "BSTAR": 0.0028998, "MEAN_MOTION_DOT": 0.0063915, "MEAN_MOTION_DDOT": 0}, "tle": {"line1": "1 66642U 25271AB  25338.67432907  .00639150  00000+0  28998-2 0  9991", "line2": "2 66642  53.1555 226.6722 0008270 225.4105 134.6244 15.81653484  2903"}}, "geometry": {"type": "Point", "coordinates": [-152.37744295729973, -20.427320100053986]}}, {"type": "Feature", "properties": {"norad_id": 66643, "name": "STARLINK-35918", "group": "last-30-days", "lat": -23.21583032355578, "lon": -154.91388611158754, "alt_km": 328.0675690636708, "timestamp": "2025-12-05T05:43:13.898079+00:00", "meta": {"OBJECT_NAME": "STARLINK-35918", "OBJECT_ID": "2025-271AC", "EPOCH": "2025-12-04T16:12:06.771168", "MEAN_MOTION": 15.81782965, "ECCENTRICITY": 0.0007458, "INCLINATION": 53.1555, "RA_OF_ASC_NODE": 226.678, "ARG_OF_PERICENTER": 210.1435, "MEAN_ANOMALY": 149.916, "EPHEMERIS_TYPE": 0, "CLASSIFICATION_TYPE": "U", "NORAD_CAT_ID": 66643, "ELEMENT_SET_NO": 999, "REV_AT_EPOCH": 294, "BSTAR": 0.004293, "MEAN_MOTION_DOT": 0.00991522, "MEAN_MOTION_DDOT": 0}, "tle": {"line1": "1 66643U 25271AC  25338.67507837  .00991522  00000+0  42930-2 0  9993", "line2": "2 66643  53.1555 226.6780 0007458 210.1435 149.9160 15.81782965  2949"}}, "geometry": {"type": "Point", "coordinates": [-154.91388611158754, -23.21583032355578]}}]}